{
  "type": "FeatureCollection",
  "features": [
    {
      "type": "Feature",
      "properties": {
        "norad_id": 34540,
        "name": "IRIDIUM 33 DEB",
        "group": "iridium-33-debris",
        "lat": -70.31439703024692,
        "lon": 133.85806938924634,
        "alt_km": 657.5825948562206,
        "timestamp": "2025-12-21T18:54:58.880921+00:00",
        "meta_object_name": "IRIDIUM 33 DEB",
        "meta_object_id": "1997-051JH",
        "meta_epoch": "2025-12-21T03:12:48.465792",
        "meta_mean_motion": 14.7547443,
        "meta_eccentricity": 0.00177108,
        "meta_inclination": 86.311,
        "meta_ra_of_asc_node": 303.768,
        "meta_arg_of_pericenter": 130.8204,
        "meta_mean_anomaly": 246.4988,
        "meta_ephemeris_type": 0,
        "meta_classification_type": "U",
        "meta_norad_cat_id": 34540,
        "meta_element_set_no": 999,
        "meta_rev_at_epoch": 89145,
        "meta_bstar": 0.0010237596,
        "meta_mean_motion_dot": 7.004e-05,
        "meta_mean_motion_ddot": 0,
        "tle_line1": "1 34540U 97051JH  25355.13389428  .00007004  00000+0  10238-2 0  9992",
        "tle_line2": "2 34540  86.3110 303.7680 0017710 130.8204 246.4988 14.75474430891455"
      },
      "geometry": {
        "type": "Point",
        "coordinates": [
          133.85806938924634,
          -70.31439703024692
        ]
      }
    },
    {
      "type": "Feature",
      "properties": {
        "norad_id": 34648,
        "name": "IRIDIUM 33 DEB",
        "group": "iridium-33-debris",
        "lat": 58.21879112528498,
        "lon": 92.44555582900372,
        "alt_km": 958.9021088315048,
        "timestamp": "2025-12-21T18:54:58.880931+00:00",
        "meta_object_name": "IRIDIUM 33 DEB",
        "meta_object_id": "1997-051JZ",
        "meta_epoch": "2025-12-21T01:19:00.379200",
        "meta_mean_motion": 14.11717804,
        "meta_eccentricity": 0.01800717,
        "meta_inclination": 86.3908,
        "meta_ra_of_asc_node": 278.5885,
        "meta_arg_of_pericenter": 272.8374,
        "meta_mean_anomaly": 85.2213,
        "meta_ephemeris_type": 0,
        "meta_classification_type": "U",
        "meta_norad_cat_id": 34648,
        "meta_element_set_no": 999,
        "meta_rev_at_epoch": 85078,
        "meta_bstar": 0.0043851239,
        "meta_mean_motion_dot": 9.319e-05,
        "meta_mean_motion_ddot": 0,
        "tle_line1": "1 34648U 97051JZ  25355.05486550  .00009319  00000+0  43851-2 0  9994",
        "tle_line2": "2 34648  86.3908 278.5885 0180071 272.8374  85.2213 14.11717804850787"
      },
      "geometry": {
        "type": "Point",
        "coordinates": [
          92.44555582900372,
          58.21879112528498
        ]
      }
    },
    {
      "type": "Feature",
      "properties": {
        "norad_id": 34651,
        "name": "IRIDIUM 33 DEB",
        "group": "iridium-33-debris",
        "lat": -73.95767063224297,
        "lon": 123.6607465691588,
        "alt_km": 847.0556108431774,
        "timestamp": "2025-12-21T18:54:58.880941+00:00",
        "meta_object_name": "IRIDIUM 33 DEB",
        "meta_object_id": "1997-051KC",
        "meta_epoch": "2025-12-19T16:44:48.420096",
        "meta_mean_motion": 14.25922062,
        "meta_eccentricity": 0.01422464,
        "meta_inclination": 86.2827,
        "meta_ra_of_asc_node": 137.6175,
        "meta_arg_of_pericenter": 181.9677,
        "meta_mean_anomaly": 178.0974,
        "meta_ephemeris_type": 0,
        "meta_classification_type": "U",
        "meta_norad_cat_id": 34651,
        "meta_element_set_no": 999,
        "meta_rev_at_epoch": 85995,
        "meta_bstar": 0.0022061693,
        "meta_mean_motion_dot": 5.865e-05,
        "meta_mean_motion_ddot": 0,
        "tle_line1": "1 34651U 97051KC  25353.69778264  .00005865  00000+0  22062-2 0  9995",
        "tle_line2": "2 34651  86.2827 137.6175 0142246 181.9677 178.0974 14.25922062859957"
      },
      "geometry": {
        "type": "Point",
        "coordinates": [
          123.6607465691588,
          -73.95767063224297
        ]
      }
    },
    {
      "type": "Feature",
      "properties": {
        "norad_id": 34652,
        "name": "IRIDIUM 33 DEB",
        "group": "iridium-33-debris",
        "lat": 72.63455632349786,
        "lon": -12.188778177369736,
        "alt_km": 697.0116243861057,
        "timestamp": "2025-12-21T18:54:58.880951+00:00",
        "meta_object_name": "IRIDIUM 33 DEB",
        "meta_object_id": "1997-051KD",
        "meta_epoch": "2025-12-21T05:29:24.538272",
        "meta_mean_motion": 14.62128423,
        "meta_eccentricity": 0.0025487,
        "meta_inclination": 86.3314,
        "meta_ra_of_asc_node": 336.221,
        "meta_arg_of_pericenter": 267.1492,
        "meta_mean_anomaly": 103.1146,
        "meta_ephemeris_type": 0,
        "meta_classification_type": "U",
        "meta_norad_cat_id": 34652,
        "meta_element_set_no": 999,
        "meta_rev_at_epoch": 88608,
        "meta_bstar": 0.00068722,
        "meta_mean_motion_dot": 3.491e-05,
        "meta_mean_motion_ddot": 0,
        "tle_line1": "1 34652U 97051KD  25355.22875623  .00003491  00000+0  68722-3 0  9991",
        "tle_line2": "2 34652  86.3314 336.2210 0025487 267.1492 103.1146 14.62128423886080"
      },
      "geometry": {
        "type": "Point",
        "coordinates": [
          -12.188778177369736,
          72.63455632349786
        ]
      }
    },
    {
      "type": "Feature",
      "properties": {
        "norad_id": 34690,
        "name": "IRIDIUM 33 DEB",
        "group": "iridium-33-debris",
        "lat": 68.32768349054606,
        "lon": 42.23197238506515,
        "alt_km": 699.9259133508667,
        "timestamp": "2025-12-21T18:54:58.880961+00:00",
        "meta_object_name": "IRIDIUM 33 DEB",
        "meta_object_id": "1997-051KM",
        "meta_epoch": "2025-12-21T02:14:02.861088",
        "meta_mean_motion": 14.55122739,
        "meta_eccentricity": 0.00098763,
        "meta_inclination": 86.3773,
        "meta_ra_of_asc_node": 33.3605,
        "meta_arg_of_pericenter": 1.7251,
        "meta_mean_anomaly": 27.9675,
        "meta_ephemeris_type": 0,
        "meta_classification_type": "U",
        "meta_norad_cat_id": 34690,
        "meta_element_set_no": 999,
        "meta_rev_at_epoch": 88216,
        "meta_bstar": 0.00028932758,
        "meta_mean_motion_dot": 1.27e-05,
        "meta_mean_motion_ddot": 0,
        "tle_line1": "1 34690U 97051KM  25355.09308867  .00001270  00000+0  28933-3 0  9992",
        "tle_line2": "2 34690  86.3773  33.3605 0009876   1.7251  27.9675 14.55122739882164"
      },
      "geometry": {
        "type": "Point",
        "coordinates": [
          42.23197238506515,
          68.32768349054606
        ]
      }
    },
    {
      "type": "Feature",
      "properties": {
        "norad_id": 34693,
        "name": "IRIDIUM 33 DEB",
        "group": "iridium-33-debris",
        "lat": -0.021559921693417597,
        "lon": -60.67938752667305,
        "alt_km": 472.9186284250827,
        "timestamp": "2025-12-21T18:54:58.880971+00:00",
        "meta_object_name": "IRIDIUM 33 DEB",
        "meta_object_id": "1997-051KQ",
        "meta_epoch": "2025-12-21T14:58:16.935168",
        "meta_mean_motion": 15.29927761,
        "meta_eccentricity": 0.00111824,
        "meta_inclination": 86.3053,
        "meta_ra_of_asc_node": 299.4039,
        "meta_arg_of_pericenter": 37.1578,
        "meta_mean_anomaly": 138.3014,
        "meta_ephemeris_type": 0,
        "meta_classification_type": "U",
        "meta_norad_cat_id": 34693,
        "meta_element_set_no": 999,
        "meta_rev_at_epoch": 89050,
        "meta_bstar": 0.0042681341,
        "meta_mean_motion_dot": 0.00125697,
        "meta_mean_motion_ddot": 0,
        "tle_line1": "1 34693U 97051KQ  25355.62380712  .00125697  00000+0  42681-2 0  9998",
        "tle_line2": "2 34693  86.3053 299.4039 0011182  37.1578 138.3014 15.29927761890503"
      },
      "geometry": {
        "type": "Point",
        "coordinates": [
          -60.67938752667305,
          -0.021559921693417597
        ]
      }
    },
    {
      "type": "Feature",
      "properties": {
        "norad_id": 34696,
        "name": "IRIDIUM 33 DEB",
        "group": "iridium-33-debris",
        "lat": 0.22588198404254636,
        "lon": -156.70504440320633,
        "alt_km": 640.0913124264307,
        "timestamp": "2025-12-21T18:54:58.880981+00:00",
        "meta_object_name": "IRIDIUM 33 DEB",
        "meta_object_id": "1997-051KT",
        "meta_epoch": "2025-12-21T13:45:49.664736",
        "meta_mean_motion": 14.65474672,
        "meta_eccentricity": 0.00738227,
        "meta_inclination": 86.1828,
        "meta_ra_of_asc_node": 23.41,
        "meta_arg_of_pericenter": 137.7678,
        "meta_mean_anomaly": 349.4039,
        "meta_ephemeris_type": 0,
        "meta_classification_type": "U",
        "meta_norad_cat_id": 34696,
        "meta_element_set_no": 999,
        "meta_rev_at_epoch": 86802,
        "meta_bstar": 0.0032005825,
        "meta_mean_motion_dot": 0.00018092,
        "meta_mean_motion_ddot": 0,
        "tle_line1": "1 34696U 97051KT  25355.57349149  .00018092  00000+0  32006-2 0  9994",
        "tle_line2": "2 34696  86.1828  23.4100 0073822 137.7678 349.4039 14.65474672868026"
      },
      "geometry": {
        "type": "Point",
        "coordinates": [
          -156.70504440320633,
          0.22588198404254636
        ]
      }
    }
  ]
}